NORAD_CAT_ID,OBJECT_NAME,OBJECT_TYPE,EPOCH,MEAN_MOTION,ECCENTRICITY,INCLINATION,RA_OF_ASC_NODE,ARG_OF_PERICENTER,MEAN_ANOMALY,BSTAR,MEAN_MOTION_DOT,MEAN_MOTION_DDOT,TLE_LINE0,TLE_LINE1,TLE_LINE2,SEMIMAJOR_AXIS,PERIOD,APOGEE,PERIGEE,DECAYED
52841.0,STARLINK-4065,PAYLOAD,2022-10-04 16:00:00,15.088377,0.0002013,53.2182,254.6713,34.1012,12.2785,-0.0025786999999999,-0.00041093,0.0,0 STARLINK-4065,1 52841U 22062M   22277.66667824 -.00041093  00000-0 -25787-2 0  9997,2 52841  53.2182 254.6713 0002013  34.1012  12.2785 15.08837700 17268,6917.887,95.438,541.145,538.36,0.0
52841.0,STARLINK-4065,PAYLOAD,2022-10-04 22:00:00,15.08806934,0.0001918,53.2181,253.5483,36.7339,288.334,0.0031074,0.00049469,0.0,0 STARLINK-4065,1 52841U 22062M   22277.91667824  .00049469  00000-0  31074-2 0  9994,2 52841  53.2181 253.5483 0001918  36.7339 288.3340 15.08806934  1308,6917.981,95.44,541.173,538.52,0.0
52841.0,STARLINK-4065,PAYLOAD,2022-10-05 08:00:01,15.08822688,0.0002133,53.2181,251.6803,31.6124,37.9212,0.00025459,3.764e-05,0.0,0 STARLINK-4065,1 52841U 22062M   22278.33334491  .00003764  00000-0  25459-3 0  9991,2 52841  53.2181 251.6803 0002133  31.6124  37.9212 15.08822688 17362,6917.933000000001,95.439,541.274,538.323,0.0
52841.0,STARLINK-4065,PAYLOAD,2022-10-05 14:00:01,15.08833676,0.0002058,53.2179,250.5568,31.4651,316.8119,-0.0012022,-0.00019367,0.0,0 STARLINK-4065,1 52841U 22062M   22278.58335648 -.00019367  00000-0 -12022-2 0  9992,2 52841  53.2179 250.5568 0002058  31.4651 316.8119 15.08833676  1305,6917.9,95.438,541.188,538.341,0.0
52841.0,STARLINK-4065,PAYLOAD,2022-10-05 22:00:00,15.08821605,0.0001969,53.2178,249.0581,38.1658,321.6295,0.00055471,8.547e-05,0.0,0 STARLINK-4065,1 52841U 22062M   22278.91667824  .00008547  00000-0  55471-3 0  9995,2 52841  53.2178 249.0581 0001969  38.1658 321.6295 15.08821605  1301,6917.937,95.439,541.164,538.439,0.0
52841.0,STARLINK-4065,PAYLOAD,2022-10-06 14:00:01,15.08869215,0.000212,53.2182,246.0677,34.5743,348.3827,-0.004185,-0.00066335,0.0,0 STARLINK-4065,1 52841U 22062M   22279.58334491 -.00066335  00000-0 -41850-2 0  9996,2 52841  53.2182 246.0677 0002120  34.5743 348.3827 15.08869215  1300,6917.791,95.436,541.123,538.19,0.0
52841.0,STARLINK-4065,PAYLOAD,2022-10-06 22:42:55,15.08837518,0.0001986,53.2187,244.4371,38.4701,157.9982,0.0015813,0.00024966,0.0,0 STARLINK-4065,1 52841U 22062M   22279.94646991  .00024966  00000-0  15813-2 0  9999,2 52841  53.2187 244.4371 0001986  38.4701 157.9982 15.08837518  1301,6917.888000000001,95.438,541.127,538.379,0.0
52841.0,STARLINK-4065,PAYLOAD,2022-10-07 00:00:00,15.08849909,0.000202,53.2186,244.1969,37.5979,89.8549,0.00016822,2.391e-05,0.0,0 STARLINK-4065,1 52841U 22062M   22280.00001157  .00002391  00000-0  16822-3 0  9997,2 52841  53.2186 244.1969 0002020  37.5979  89.8549 15.08849909 17628,6917.85,95.437,541.113,538.318,0.0
52841.0,STARLINK-4065,PAYLOAD,2022-10-07 14:00:01,15.08855133,0.0002073999999999,53.2189,241.5784,35.0963,22.6822,-0.0027208,-0.00043349,0.0,0 STARLINK-4065,1 52841U 22062M   22280.58334491 -.00043349  00000-0 -27208-2 0  9999,2 52841  53.2189 241.5784 0002074  35.0963  22.6822 15.08855133  1305,6917.834,95.437,541.134,538.264,0.0
52841.0,STARLINK-4065,PAYLOAD,2022-10-07 22:00:00,15.08837665,0.0001973,53.2193,240.0815,39.0555,30.3148,-0.0003325,-5.576e-05,0.0,0 STARLINK-4065,1 52841U 22062M   22280.91667824 -.00005576  00000-0 -33250-3 0  9990,2 52841  53.2193 240.0815 0001973  39.0555  30.3148 15.08837665  1304,6917.888000000001,95.438,541.117,538.388,0.0
52841.0,STARLINK-4065,PAYLOAD,2022-10-08 06:00:00,15.08831139,0.0002147,53.2195,238.5869,34.2629,46.6994,-0.00076617,-0.00012459,0.0,0 STARLINK-4065,1 52841U 22062M   22281.25001157 -.00012459  00000-0 -76617-3 0  9991,2 52841  53.2195 238.5869 0002147  34.2629  46.6994 15.08831139 17801,6917.906999999997,95.438,541.258,538.2869999999998,0.0
52841.0,STARLINK-4065,PAYLOAD,2022-10-08 14:00:01,15.08825905,0.0002009999999999,53.2196,237.0893,36.182,56.3604,-0.0020829999999999,-0.00033274,0.0,0 STARLINK-4065,1 52841U 22062M   22281.58334491 -.00033274  00000-0 -20830-2 0  9990,2 52841  53.2196 237.0893 0002010  36.1820  56.3604 15.08825905  1304,6917.9230000000025,95.438,541.179,538.398,0.0
52841.0,STARLINK-4065,PAYLOAD,2022-10-08 22:00:00,15.08817979,0.0001962,53.2199,235.5926,41.0215,63.0798,0.001836,0.00029035,0.0,0 STARLINK-4065,1 52841U 22062M   22281.91667824  .00029035  00000-0  18360-2 0  9999,2 52841  53.2199 235.5926 0001962  41.0215  63.0798 15.08817979  1306,6917.948,95.439,541.17,538.455,0.0
52841.0,STARLINK-4065,PAYLOAD,2022-10-09 06:00:00,15.08834178,0.0002125,53.22,234.0981,36.6326,79.0536,0.0013552999999999,0.00021344,0.0,0 STARLINK-4065,1 52841U 22062M   22282.25001157  .00021344  00000-0  13553-2 0  9992,2 52841  53.2200 234.0981 0002125  36.6326  79.0536 15.08834178 17965,6917.898,95.438,541.2330000000002,538.293,0.0
52841.0,STARLINK-4065,PAYLOAD,2022-10-09 14:00:01,15.08846175,0.0001928,53.22,232.6005,38.0796,89.2077,8.485200000000001e-05,1.063e-05,0.0,0 STARLINK-4065,1 52841U 22062M   22282.58334491  .00001063  00000-0  84852-4 0  9996,2 52841  53.2200 232.6005 0001928  38.0796  89.2077 15.08846175  1307,6917.861999999999,95.437,541.06,538.393,0.0
52841.0,STARLINK-4065,PAYLOAD,2022-10-10 00:00:00,15.08856041,0.0001933,53.2202,230.7306,42.4584,189.3335,-0.00036912,-6.161e-05,0.0,0 STARLINK-4065,1 52841U 22062M   22283.00001157 -.00006161  00000-0 -36912-3 0  9993,2 52841  53.2202 230.7306 0001933  42.4584 189.3335 15.08856041  1304,6917.831,95.437,541.034,538.359,0.0
52841.0,STARLINK-4065,PAYLOAD,2022-10-10 08:00:01,15.08842214,0.0002070999999999,53.219,229.2335,38.2242,205.1837,4.659600000000001e-05,4.53e-06,0.0,0 STARLINK-4065,1 52841U 22062M   22283.33334491  .00000453  00000-0  46596-4 0  9995,2 52841  53.2190 229.2335 0002071  38.2242 205.1837 15.08842214 18122,6917.874,95.437,541.1709999999998,538.306,0.0
52841.0,STARLINK-4065,PAYLOAD,2022-10-10 14:00:01,15.08896098,0.0001986999999999,53.2186,228.1072,39.5403,122.5606,-0.012498,-0.00194185,0.0,0 STARLINK-4065,1 52841U 22062M   22283.58334491 -.00194185  00000-0 -12498-1 0  9991,2 52841  53.2186 228.1072 0001987  39.5403 122.5606 15.08896098  1308,6917.709,95.434,540.948,538.1990000000002,0.0
52841.0,STARLINK-4065,PAYLOAD,2022-10-10 22:00:01,15.08926589,0.0001896999999999,53.2189,226.6102,45.7357,128.026,-0.016491,-0.00254219,0.0,0 STARLINK-4065,1 52841U 22062M   22283.91668981 -.00254219  00000-0 -16491-1 0  9994,2 52841  53.2189 226.6102 0001897  45.7357 128.0260 15.08926589  1301,6917.616,95.432,540.793,538.168,0.0
52841.0,STARLINK-4065,PAYLOAD,2022-10-11 06:00:00,15.08811407,0.0002037,53.2194,225.1196,41.9327,143.3706,-0.00021262,-3.668e-05,0.0,0 STARLINK-4065,1 52841U 22062M   22284.25001157 -.00003668  00000-0 -21262-3 0  9992,2 52841  53.2194 225.1196 0002037  41.9327 143.3706 15.08811407 18266,6917.968000000003,95.439,541.242,538.424,0.0
52841.0,STARLINK-4065,PAYLOAD,2022-10-11 14:00:01,15.08757524,0.0001831,53.218,223.6148,42.1568,154.6999,0.0078344,0.00126355,0.0,0 STARLINK-4065,1 52841U 22062M   22284.58334491  .00126355  00000-0  78344-2 0  9997,2 52841  53.2180 223.6148 0001831  42.1568 154.6999 15.08757524  1307,6918.132,95.443,541.264,538.731,0.0
52841.0,STARLINK-4065,PAYLOAD,2022-10-11 22:00:00,15.08812569,0.0001807,53.2197,222.1276,49.7081,158.6117,0.0029051,0.00046215,0.0,0 STARLINK-4065,1 52841U 22062M   22284.91667824  .00046215  00000-0  29051-2 0  9990,2 52841  53.2197 222.1276 0001807  49.7081 158.6117 15.08812569  1304,6917.964,95.439,541.0790000000002,538.5790000000002,0.0
52841.0,STARLINK-4065,PAYLOAD,2022-10-12 06:00:00,15.08951712,0.0002145999999999,53.218,220.624,40.8496,179.092,-0.011221,-0.00175105,0.0,0 STARLINK-4065,1 52841U 22062M   22285.25001157 -.00175105  00000-0 -11221-1 0  9991,2 52841  53.2180 220.6240 0002146  40.8496 179.0920 15.08951712 18412,6917.5390000000025,95.43,540.888,537.919,0.0
52841.0,STARLINK-4065,PAYLOAD,2022-10-12 14:00:01,15.08836734,0.0002065999999999,53.2176,219.1238,39.6462,191.9483,2.0433e-05,3.7e-07,0.0,0 STARLINK-4065,1 52841U 22062M   22285.58334491  .00000037  00000-0  20433-4 0  9994,2 52841  53.2176 219.1238 0002066  39.6462 191.9483 15.08836734 18465,6917.89,95.438,541.185,538.326,0.0
52841.0,STARLINK-4065,PAYLOAD,2022-10-12 22:00:00,15.08836401,0.0002097,53.2176,217.6278,40.4539,202.7328,5.5426e-05,5.94e-06,0.0,0 STARLINK-4065,1 52841U 22062M   22285.91667824  .00000594  00000-0  55426-4 0  9998,2 52841  53.2176 217.6278 0002097  40.4539 202.7328 15.08836401  1306,6917.891,95.438,541.207,538.306,0.0
52841.0,STARLINK-4065,PAYLOAD,2022-10-13 06:00:00,15.08768743,0.0001921999999999,53.2185,216.1403,40.2835,214.4232,0.010813,0.00175784,0.0,0 STARLINK-4065,1 52841U 22062M   22286.25001157  .00175784  00000-0  10813-1 0  9999,2 52841  53.2185 216.1403 0001922  40.2835 214.4232 15.08768743 18566,6918.098000000001,95.442,541.293,538.634,0.0
52841.0,STARLINK-4065,PAYLOAD,2022-10-13 14:00:01,15.08998604,0.0001783,53.2182,214.6383,44.9055,221.3629,-0.013858,-0.00215256,0.0,0 STARLINK-4065,1 52841U 22062M   22286.58334491 -.00215256  00000-0 -13858-1 0  9998,2 52841  53.2182 214.6383 0001783  44.9055 221.3629 15.08998604  1305,6917.396,95.428,540.494,538.0269999999998,0.0
52841.0,STARLINK-4065,PAYLOAD,2022-10-13 20:00:01,15.08835245,0.0001904,53.2176,213.5124,50.5595,134.5695,0.000183,2.625e-05,0.0,0 STARLINK-4065,1 52841U 22062M   22286.83335648  .00002625  00000-0  18300-3 0  9992,2 52841  53.2176 213.5124 0001904  50.5595 134.5695 15.08835245 18651,6917.895,95.438,541.077,538.443,0.0
52841.0,STARLINK-4065,PAYLOAD,2022-10-13 22:00:00,15.08836501,0.0001895,53.2175,213.1387,49.8504,228.1128,4.6795e-05,4.57e-06,0.0,0 STARLINK-4065,1 52841U 22062M   22286.91667824  .00000457  00000-0  46795-4 0  9996,2 52841  53.2175 213.1387 0001895  49.8504 228.1128 15.08836501  1308,6917.891,95.438,541.067,538.445,0.0
